OBJECT_NAME,OBJECT_ID,EPOCH,MEAN_MOTION,ECCENTRICITY,INCLINATION,RA_OF_ASC_NODE,ARG_OF_PERICENTER,MEAN_ANOMALY,EPHEMERIS_TYPE,CLASSIFICATION_TYPE,NORAD_CAT_ID,ELEMENT_SET_NO,REV_AT_EPOCH,BSTAR,MEAN_MOTION_DOT,MEAN_MOTION_DDOT
STARLINK-33908,2025-087D,2026-06-10T06:16:06.183552,15.30216962,.00013442,53.1578,149.5064,84.8088,275.3067,0,U,63700,999,6337,.37610406E-3,.10802E-3,0
STARLINK-33950,2025-087E,2026-06-10T06:18:53.178336,15.31713779,.00013427,53.1578,149.5213,82.1474,277.9679,0,U,63701,999,6337,.38770054E-3,.1169E-3,0
STARLINK-33939,2025-087F,2026-06-10T05:38:33.503136,15.31719254,.00018956,53.1592,149.3466,91.2548,268.8671,0,U,63702,999,6337,.56669253E-3,.17271E-3,0
STARLINK-33868,2025-087G,2026-06-10T06:22:11.010144,15.30213808,.00014711,53.1572,149.5288,72.0714,288.0447,0,U,63703,999,6337,.61126497E-3,.17796E-3,0
STARLINK-33937,2025-087H,2026-06-10T05:47:14.050176,15.30223698,.00012576,53.1584,149.3826,68.3358,291.7777,0,U,63704,999,6337,.54338253E-3,.1578E-3,0
STARLINK-33848,2025-087J,2026-06-10T06:03:56.641824,15.30207063,.00012323,53.1572,149.4544,72.3266,287.7869,0,U,63705,999,6336,.54563764E-3,.15839E-3,0
STARLINK-33995,2025-087K,2026-06-10T05:30:40.120128,15.30208950,.00022108,53.1578,150.0101,113.4859,246.6375,0,U,63706,999,6336,.55446819E-3,.16103E-3,0
STARLINK-33982,2025-087L,2026-06-10T06:13:03.335232,15.30203191,.00011243,53.1562,149.4892,85.3982,274.7147,0,U,63707,999,6337,.57861384E-3,.16818E-3,0
STARLINK-33915,2025-087M,2026-06-10T06:29:46.499712,15.30209848,.00017582,53.1573,149.5627,86.4845,273.6357,0,U,63708,999,6337,.63962039E-3,.18638E-3,0
STARLINK-33862,2025-087N,2026-06-10T06:20:40.767936,15.30203861,.00015113,53.1571,149.5240,71.0604,289.0560,0,U,63709,999,6337,.54463789E-3,.15808E-3,0
STARLINK-33920,2025-087P,2026-06-10T04:31:29.072352,15.31712677,.00011302,53.1577,149.7699,88.1356,271.9775,0,U,63710,999,6336,.48378532E-3,.14683E-3,0
STARLINK-33580,2025-087Q,2026-06-10T06:12:09.725760,15.31720216,.00011574,53.1573,149.4894,75.7209,284.3921,0,U,63711,999,6337,.75450209E-3,.23135E-3,0
STARLINK-33783,2025-087R,2026-06-10T04:18:02.409120,15.31716894,.00008683,53.1579,149.7070,100.5620,259.5480,0,U,63712,999,6336,.73999949E-3,.2268E-3,0
STARLINK-33773,2025-087S,2026-06-10T03:24:16.191648,15.31716665,.00014204,53.1587,149.4717,69.4535,290.6619,0,U,63713,999,6336,.57775641E-3,.17615E-3,0
STARLINK-33745,2025-087T,2026-06-10T05:56:19.879584,15.30185261,.00011371,53.1576,149.4186,81.5980,278.5150,0,U,63714,999,6337,-.17749886E-4,-.884E-5,0
STARLINK-33728,2025-087U,2026-06-10T06:06:58.660704,15.30208545,.00010938,53.1574,149.4612,84.8176,275.2949,0,U,63715,999,6337,.45239945E-3,.13067E-3,0
STARLINK-33749,2025-087V,2026-06-10T05:58:42.106080,15.31692608,.00013122,53.1574,149.4302,95.9668,264.1483,0,U,63716,999,6337,-.11818876E-3,-.403E-4,0
STARLINK-33725,2025-087W,2026-06-10T06:11:32.928000,15.30206787,.00011825,53.1565,149.4820,89.9808,270.1328,0,U,63717,999,6337,.66730886E-3,.19461E-3,0
STARLINK-33641,2025-087X,2026-06-10T05:31:50.030688,15.31731755,.00030002,53.1580,149.3041,111.1747,248.9575,0,U,63718,999,6337,.81956191E-3,.25179E-3,0
STARLINK-33727,2025-087Y,2026-06-10T06:01:04.488096,15.34418687,.00011296,53.1577,148.0239,81.8318,278.2813,0,U,63719,999,6339,.70388801E-3,.23494E-3,0
STARLINK-33757,2025-087Z,2026-06-10T06:26:44.175840,15.30204260,.00017118,53.1580,149.5456,88.2185,271.9012,0,U,63720,999,6337,.6710154E-3,.19569E-3,0
STARLINK-33774,2025-087AA,2026-06-10T05:45:16.505568,15.31697021,.00012944,53.1579,149.3735,90.1094,270.0056,0,U,63721,999,6337,.86076493E-4,.2307E-4,0
STARLINK-33767,2025-087AB,2026-06-10T06:08:29.786784,15.30210621,.00011828,53.1583,149.4654,78.1426,281.9707,0,U,63722,999,6337,.52411321E-3,.152E-3,0
STARLINK-33806,2025-087AC,2026-06-10T06:17:38.496768,15.30171051,.00014506,53.1573,149.5074,90.0754,270.0413,0,U,63723,999,6337,.63637056E-3,.18519E-3,0
KUIPER-00008,2025-088A,2026-06-09T08:58:33.861792,14.79926351,.0000648,51.9011,42.5799,104.3336,255.7698,0,U,63724,999,6162,.49129E-4,.153E-5,0
KUIPER-00009,2025-088B,2026-06-10T06:22:57.728352,14.79827214,.00030883,51.9031,56.2505,167.1578,192.9464,0,U,63725,999,6150,-.90846535E-2,-.68609E-3,0
KUIPER-00010,2025-088C,2026-06-09T22:52:55.891488,14.79922936,.0000781,51.9040,35.1163,95.4657,264.6395,0,U,63726,999,6139,.18843768E-4,-.78E-6,0
KUIPER-00011,2025-088D,2026-06-09T23:29:54.133728,14.79933313,.00007448,51.9018,42.5561,105.2133,254.8912,0,U,63727,999,6142,.18403498E-3,.1182E-4,0
KUIPER-00012,2025-088E,2026-06-09T21:27:19.324224,14.79927652,.00006124,51.9043,27.8635,107.1258,252.9771,0,U,63728,999,6157,.29448608E-4,.3E-7,0
KUIPER-00013,2025-088F,2026-06-10T00:39:57.804768,14.79927297,.00010966,51.9037,59.7902,77.8170,282.2916,0,U,63729,999,6124,.1018387E-4,-.144E-5,0
