STARLINK-33908          
1 63700U 25087D   26161.26118268  .00010802  00000+0  37610-3 0  9998
2 63700  53.1578 149.5064 0001344  84.8088 275.3067 15.30216962 63378
STARLINK-33950          
1 63701U 25087E   26161.26311549  .00011690  00000+0  38770-3 0  9990
2 63701  53.1578 149.5213 0001342  82.1474 277.9679 15.31713779 63379
STARLINK-33939          
1 63702U 25087F   26161.23510999  .00017271  00000+0  56669-3 0  9996
2 63702  53.1592 149.3466 0001895  91.2548 268.8671 15.31719254 63375
STARLINK-33868          
1 63703U 25087G   26161.26540521  .00017796  00000+0  61126-3 0  9990
2 63703  53.1572 149.5288 0001471  72.0714 288.0447 15.30213808 63378
STARLINK-33937          
1 63704U 25087H   26161.24113484  .00015780  00000+0  54338-3 0  9991
2 63704  53.1584 149.3826 0001257  68.3358 291.7777 15.30223698 63377
STARLINK-33848          
1 63705U 25087J   26161.25273891  .00015839  00000+0  54564-3 0  9998
2 63705  53.1572 149.4544 0001232  72.3266 287.7869 15.30207063 63363
STARLINK-33995          
1 63706U 25087K   26161.22963102  .00016103  00000+0  55447-3 0  9993
2 63706  53.1578 150.0101 0002210 113.4859 246.6375 15.30208950 63361
STARLINK-33982          
1 63707U 25087L   26161.25906638  .00016818  00000+0  57861-3 0  9993
2 63707  53.1562 149.4892 0001124  85.3982 274.7147 15.30203191 63373
STARLINK-33915          
1 63708U 25087M   26161.27067708  .00018638  00000+0  63962-3 0  9993
2 63708  53.1573 149.5627 0001758  86.4845 273.6357 15.30209848 63372
STARLINK-33862          
1 63709U 25087N   26161.26436074  .00015808  00000+0  54464-3 0  9992
2 63709  53.1571 149.5240 0001511  71.0604 289.0560 15.30203861 63378
STARLINK-33920          
1 63710U 25087P   26161.18853093  .00014683  00000+0  48379-3 0  9997
2 63710  53.1577 149.7699 0001130  88.1356 271.9775 15.31712677 63364
STARLINK-33580          
1 63711U 25087Q   26161.25844590  .00023135  00000+0  75450-3 0  9990
2 63711  53.1573 149.4894 0001157  75.7209 284.3921 15.31720216 63373
STARLINK-33783          
1 63712U 25087R   26161.17919455  .00022680  00000+0  74000-3 0  9999
2 63712  53.1579 149.7070 0000868 100.5620 259.5480 15.31716894 63361
STARLINK-33773          
1 63713U 25087S   26161.14185407  .00017615  00000+0  57776-3 0  9992
2 63713  53.1587 149.4717 0001420  69.4535 290.6619 15.31716665 63365
STARLINK-33745          
1 63714U 25087T   26161.24745231 -.00000884  00000+0 -17750-4 0  9992
2 63714  53.1576 149.4186 0001137  81.5980 278.5150 15.30185261 63375
STARLINK-33728          
1 63715U 25087U   26161.25484561  .00013067  00000+0  45240-3 0  9999
2 63715  53.1574 149.4612 0001093  84.8176 275.2949 15.30208545 63373
STARLINK-33749          
1 63716U 25087V   26161.24909845 -.00004030  00000+0 -11819-3 0  9993
2 63716  53.1574 149.4302 0001312  95.9668 264.1483 15.31692608 63371
STARLINK-33725          
1 63717U 25087W   26161.25802000  .00019461  00000+0  66731-3 0  9995
2 63717  53.1565 149.4820 0001182  89.9808 270.1328 15.30206787 63374
STARLINK-33641          
1 63718U 25087X   26161.23044017  .00025179  00000+0  81956-3 0  9999
2 63718  53.1580 149.3041 0003000 111.1747 248.9575 15.31731755 63373
STARLINK-33727          
1 63719U 25087Y   26161.25074639  .00023494  00000+0  70389-3 0  9991
2 63719  53.1577 148.0239 0001129  81.8318 278.2813 15.34418687 63394
STARLINK-33757          
1 63720U 25087Z   26161.26856685  .00019569  00000+0  67102-3 0  9990
2 63720  53.1580 149.5456 0001711  88.2185 271.9012 15.30204260 63372
STARLINK-33774          
1 63721U 25087AA  26161.23977437  .00002307  00000+0  86076-4 0  9991
2 63721  53.1579 149.3735 0001294  90.1094 270.0056 15.31697021 63376
STARLINK-33767          
1 63722U 25087AB  26161.25590031  .00015200  00000+0  52411-3 0  9996
2 63722  53.1583 149.4654 0001182  78.1426 281.9707 15.30210621 63374
STARLINK-33806          
1 63723U 25087AC  26161.26225112  .00018519  00000+0  63637-3 0  9991
2 63723  53.1573 149.5074 0001450  90.0754 270.0413 15.30171051 63372
KUIPER-00008            
1 63724U 25088A   26160.37400303  .00000153  00000+0  49129-4 0  9997
2 63724  51.9011  42.5799 0000648 104.3336 255.7698 14.79926351 61629
KUIPER-00009            
1 63725U 25088B   26161.26594593 -.00068609  00000+0 -90847-2 0  9995
2 63725  51.9031  56.2505 0003088 167.1578 192.9464 14.79827214 61503
KUIPER-00010            
1 63726U 25088C   26160.95342467 -.00000078  00000+0  18844-4 0  9996
2 63726  51.9040  35.1163 0000781  95.4657 264.6395 14.79922936 61392
KUIPER-00011            
1 63727U 25088D   26160.97909877  .00001182  00000+0  18403-3 0  9999
2 63727  51.9018  42.5561 0000744 105.2133 254.8912 14.79933313 61421
KUIPER-00012            
1 63728U 25088E   26160.89397366  .00000003  00000+0  29449-4 0  9999
2 63728  51.9043  27.8635 0000612 107.1258 252.9771 14.79927652 61578
KUIPER-00013            
1 63729U 25088F   26161.02775237 -.00000144  00000+0  10184-4 0  9996
2 63729  51.9037  59.7902 0001096  77.8170 282.2916 14.79927297 61242
